STARLINK-36215          
1 67100U 25298AB  25358.83334491 -.01719799  00000+0 -96223-2 0  9996
2 67100  69.9960 215.5394 0003721 275.9962 218.3531 15.82225933  2923
STARLINK-36200          
1 67101U 25298AC  25358.83334491 -.01719064  00000+0 -96194-2 0  9999
2 67101  69.9964 215.5443 0003804 270.9677 219.6897 15.82220180  2921
STARLINK-36255          
1 67102U 25299A   25358.83334491 -.01796758  00000+0 -84306-2 0  9998
2 67102  42.9969 242.5660 0001724 264.8371  88.6901 15.85424814  2755
STARLINK-36256          
1 67103U 25299B   25358.83334491 -.01788004  00000+0 -83778-2 0  9996
2 67103  42.9969 242.5628 0001697 267.4807  87.3322 15.85436670  2758
STARLINK-36258          
1 67104U 25299C   25358.83334491 -.01790902  00000+0 -83866-2 0  9995
2 67104  42.9969 242.5591 0001754 269.8204  86.4496 15.85452980  2753
STARLINK-36261          
1 67105U 25299D   25358.83334491 -.01793607  00000+0 -83914-2 0  9995
2 67105  42.9968 242.5561 0001711 268.2181  89.2580 15.85477888  2759
STARLINK-36259          
1 67106U 25299E   25358.83334491 -.01794870  00000+0 -83899-2 0  9991
2 67106  42.9970 242.5481 0001731 261.7789  98.9494 15.85498079  2754
STARLINK-36196          
1 67107U 25299F   25358.83334491 -.01794272  00000+0 -83907-2 0  9998
2 67107  42.9970 242.5524 0001692 267.2961  91.7231 15.85488717  2750
STARLINK-36208          
1 67108U 25299G   25358.83334491 -.01783446  00000+0 -83290-2 0  9995
2 67108  42.9970 242.5436 0001638 262.1164 100.3187 15.85495462  2754
STARLINK-35764          
1 67109U 25299H   25358.83334491 -.01791330  00000+0 -83672-2 0  9991
2 67109  42.9970 242.5389 0001681 263.1158 101.1554 15.85506758  2640
STARLINK-35781          
1 67110U 25299J   25358.83334491 -.01794734  00000+0 -83811-2 0  9999
2 67110  42.9971 242.5300 0001731 268.6348  99.1921 15.85517375  2701
STARLINK-35875          
1 67111U 25299K   25358.83334491 -.01783966  00000+0 -83287-2 0  9992
2 67111  42.9973 242.5345 0001694 261.0120 105.0967 15.85502216  2644
STARLINK-35906          
1 67112U 25299L   25358.25002315 -.01749141  00000+0 -72655-2 0  9990
2 67112  42.9975 246.1253 0001810 267.6483   5.6676 15.87778531  2558
STARLINK-35789          
1 67113U 25299M   25358.25002315 -.01752103  00000+0 -72751-2 0  9990
2 67113  42.9975 246.1211 0001748 263.8906  10.9600 15.87792278  2551
STARLINK-36180          
1 67114U 25299N   25358.25002315 -.01752293  00000+0 -72748-2 0  9997
2 67114  42.9976 246.1168 0001735 267.0202   9.6428 15.87795685  2665
STARLINK-35892          
1 67115U 25299P   25358.25002315 -.01755080  00000+0 -72833-2 0  9990
2 67115  42.9976 246.1129 0001803 265.3393  12.8820 15.87808404  2555
STARLINK-35738          
1 67116U 25299Q   25358.25002315 -.01754566  00000+0 -72794-2 0  9995
2 67116  42.9976 246.1082 0001763 266.5478  13.5393 15.87812660  2558
STARLINK-35674          
1 67117U 25299R   25358.25002315 -.01749854  00000+0 -72555-2 0  9995
2 67117  42.9978 246.1040 0001766 264.7900  16.9775 15.87815831  2451
STARLINK-35701          
1 67118U 25299S   25358.25002315 -.01753749  00000+0 -72711-2 0  9998
2 67118  42.9977 246.0996 0001803 268.7409  14.7524 15.87824039  2616
STARLINK-36179          
1 67119U 25299T   25358.25002315 -.01742426  00000+0 -72080-2 0  9998
2 67119  42.9974 246.0925 0001773 269.4181  16.7690 15.87847946  2660
STARLINK-36217          
1 67120U 25299U   25358.25002315 -.01750112  00000+0 -72507-2 0  9995
2 67120  42.9977 246.0960 0001762 268.3960  16.5508 15.87832523  2666
STARLINK-36124          
1 67121U 25299V   25358.25002315 -.01751220  00000+0 -72430-2 0  9992
2 67121  42.9976 246.0841 0001805 266.3564  23.2541 15.87867512  2668
STARLINK-36188          
1 67122U 25299W   25358.25002315 -.01752773  00000+0 -72472-2 0  9993
2 67122  42.9977 246.0806 0001755 267.7090  23.3626 15.87877158  2666
STARLINK-36151          
1 67123U 25299X   25358.25002315 -.01746926  00000+0 -72268-2 0  9990
2 67123  42.9978 246.0889 0001748 270.3042  17.5664 15.87856125  2666
STARLINK-36195          
1 67124U 25299Y   25358.25002315 -.01753002  00000+0 -72443-2 0  9999
2 67124  42.9979 246.0766 0001846 265.5521  27.1502 15.87886536  2666
STARLINK-36219          
1 67125U 25299Z   25358.25002315 -.01749612  00000+0 -72248-2 0  9995
2 67125  42.9976 246.0723 0001762 266.2799  27.9529 15.87896707  2667
STARLINK-36223          
1 67126U 25299AA  25358.25002315 -.01752939  00000+0 -72377-2 0  9995
2 67126  42.9976 246.0678 0001846 267.7573  28.3171 15.87903971  2666
STARLINK-36164          
1 67127U 25299AB  25358.25002315 -.01753302  00000+0 -72368-2 0  9991
2 67127  42.9977 246.0636 0001823 268.7667  28.9774 15.87911328  2662
STARLINK-35685          
1 67128U 25299AC  25358.25002315 -.01740736  00000+0 -71902-2 0  9992
2 67128  42.9975 246.0512 0001813 268.2609  34.2747 15.87873915  2663
STARLINK-36214          
1 67129U 25299AD  25358.25002315 -.01751821  00000+0 -72327-2 0  9992
2 67129  42.9975 246.0584 0001831 268.8520  30.8638 15.87903041  2666
STARLINK-36194          
1 67130U 25299AE  25358.25002315 -.01745657  00000+0 -72474-2 0  9997
2 67130  42.9975 246.0401 0001840 271.8857  35.7264 15.87781617  2665
ZIYUAN 3-04 (ZY 3-04)   
1 67131U 25300A   25355.76567347  .00001396  00000+0  65770-4 0  9990
2 67131  97.4922  69.8294 0002762 167.6924 192.4380 15.21179479   860
CZ-4B R/B               
1 67132U 25300B   25352.67574779  .00040543  26530-5  19566-3 0  9995
2 67132  97.5563  66.9660 0174197   9.3582 351.0851 15.63831828   407
GALILEO A               
1 67160U 25302A   25352.14605887 -.00000007  00000+0  00000+0 0  9994
2 67160  54.2406 107.2544 0008423 237.6458 122.2317  1.72906186    28
GALILEO B               
1 67161U 25302B   25353.30200568 -.00000005  00000+0  00000+0 0  9999
2 67161  54.2272 107.1916 0004586 255.0301 104.8802  1.72972192    57
ARIANE 6 R/B            
1 67162U 25302C   25353.30035962 -.00000005  00000+0  00000+0 0  9994
2 67162  54.2437 107.2220 0000255 160.7324 199.2296  1.73130298    88
DISKSAT A               
1 67219U 25305A   25354.38090451  .00000510  00000+0  50887-4 0  9996
2 67219  45.0057 310.0654 0003912 276.1097  83.9332 15.05762698   337
DISKSAT B               
1 67220U 25305B   25354.24828476  .00000511  00000+0  51086-4 0  9992
2 67220  45.0108 310.7693 0004681 270.4757  89.5581 15.05702195   312
DISKSAT C               
1 67221U 25305C   25354.31471422  .00001256  00000+0  10191-3 0  9994
2 67221  45.0067 310.4143 0004387 282.7791  77.2594 15.05653670   312
DISKSAT D               
1 67222U 25305D   25354.31483363  .00001252  00000+0  10184-3 0  9990
2 67222  45.0056 310.4150 0004477 287.6101  72.4284 15.05567005   317
ELECTRON KICK STAGE R/B 
1 67223U 25305E   25357.29083347  .00018707  00000+0  18366-3 0  9992
2 67223  44.9877 292.9264 0177490 166.6089 193.9601 15.48545747   794
ELECTRON R/B            
1 67224U 25305F   25352.76890193  .00172783  86369-5  22935-3 0  9995
2 67224  45.0188 318.3021 0262888 280.1207  77.0133 15.64663678    93
TJS-23                  
1 67226U 25306A   25355.35057138  .00003331  00000+0  71636-3 0  9996
2 67226  16.4010 298.8861 7754040 179.8382 143.9016  1.72705756    20
CZ-5 R/B                
1 67227U 25306B   25354.80698343  .00001201  00000+0  48546-3 0  9993
2 67227  16.4229 298.9498 7578822 179.0262 184.9269  1.92163474    23
QPS-SAR-15              
1 67228U 25307A   25358.63400723  .00005837  00000+0  51259-3 0  9997
2 67228  42.0067 105.1986 0010128 288.6148  71.3576 14.97075685   501
ELECTRON KICK STAGE R/B 
1 67229U 25307B   25358.57516552  .00454501  61388-4  14822-2 0  9990
2 67229  42.0011 103.8716 0245567 260.0320  97.2731 15.55758318   517
ELECTRON R/B            
1 67230U 25307C   25355.36249005  .00071881  81069-5  20248-3 0  9997
2 67230  41.9820 123.1026 0261408 268.1410  88.9482 15.55087105    19
